NORAD_CAT_ID,OBJECT_NAME,OBJECT_TYPE,EPOCH,MEAN_MOTION,ECCENTRICITY,INCLINATION,RA_OF_ASC_NODE,ARG_OF_PERICENTER,MEAN_ANOMALY,BSTAR,MEAN_MOTION_DOT,MEAN_MOTION_DDOT,TLE_LINE0,TLE_LINE1,TLE_LINE2,SEMIMAJOR_AXIS,PERIOD,APOGEE,PERIGEE,DECAYED
54779.0,STARLINK-5447,PAYLOAD,2023-09-14 02:31:27,15.08848785,0.0001462,53.2166,143.5285,92.2458,267.8701,0.00012762,1.744e-05,0.0,0 STARLINK-5447,1 54779U 22175X   23257.10518373  .00001744  00000-0  12762-3 0  9993,2 54779  53.2166 143.5285 0001462  92.2458 267.8701 15.08848785 40951,6917.854,95.437,540.73,538.707,0.0
54779.0,STARLINK-5447,PAYLOAD,2023-09-14 21:36:07,15.08830155,0.0001638,53.217,139.9563,109.8127,250.3042,-6.7708e-05,-1.365e-05,0.0,0 STARLINK-5447,1 54779U 22175X   23257.90008372 -.00001365  00000-0 -67708-4 0  9996,2 54779  53.2170 139.9563 0001638 109.8127 250.3042 15.08830155 43238,6917.91,95.438,540.909,538.642,0.0
54779.0,STARLINK-5447,PAYLOAD,2023-09-15 00:46:53,15.08831546,0.000137,53.2164,139.365,89.9811,270.1338,-6.1592e-05,-1.268e-05,0.0,0 STARLINK-5447,1 54779U 22175X   23258.03256442 -.00001268  00000-0 -61592-4 0  9991,2 54779  53.2164 139.3650 0001370  89.9811 270.1338 15.08831546 41098,6917.906,95.438,540.719,538.823,0.0
54779.0,STARLINK-5447,PAYLOAD,2023-09-15 23:02:16,15.08844446,0.000132,53.2164,135.203,95.7483,264.3659,3.9471e-05,3.4e-06,0.0,0 STARLINK-5447,1 54779U 22175X   23258.95991589  .00000340  00000-0  39471-4 0  9999,2 54779  53.2164 135.2030 0001320  95.7483 264.3659 15.08844446 41230,6917.867,95.437,540.645,538.819,0.0
54779.0,STARLINK-5447,PAYLOAD,2023-09-16 02:13:03,15.08844854,0.0001326,53.2167,134.6085,96.6481,263.4662,4.7046e-05,4.61e-06,0.0,0 STARLINK-5447,1 54779U 22175X   23259.09239588  .00000461  00000-0  47046-4 0  9990,2 54779  53.2167 134.6085 0001326  96.6481 263.4662 15.08844854 43419,6917.866,95.437,540.648,538.813,0.0
54779.0,STARLINK-5447,PAYLOAD,2023-09-17 02:03:50,15.08839566,0.0001416,53.2164,130.1479,99.3482,260.767,0.00019259,2.778e-05,0.0,0 STARLINK-5447,1 54779U 22175X   23260.08600190  .00002778  00000-0  19259-3 0  9999,2 54779  53.2164 130.1479 0001416  99.3482 260.7670 15.08839566 41405,6917.882,95.438,540.726,538.767,0.0
54779.0,STARLINK-5447,PAYLOAD,2023-09-18 00:19:14,15.08841218,0.0001507,53.2169,125.984,97.0385,263.0779,0.00028673,4.278e-05,0.0,0 STARLINK-5447,1 54779U 22175X   23261.01336017  .00004278  00000-0  28673-3 0  9994,2 54779  53.2169 125.9840 0001507  97.0385 263.0779 15.08841218 43700,6917.877,95.437,540.784,538.699,0.0
54779.0,STARLINK-5447,PAYLOAD,2023-09-18 20:59:15,15.08844876,0.000153,53.2177,122.1181,87.5357,272.581,8.5741e-05,1.077e-05,0.0,0 STARLINK-5447,1 54779U 22175X   23261.87448291  .00001077  00000-0  85741-4 0  9990,2 54779  53.2177 122.1181 0001530  87.5357 272.5810 15.08844876 43833,6917.865,95.437,540.789,538.672,0.0
54779.0,STARLINK-5447,PAYLOAD,2023-09-19 00:10:01,15.08845985,0.0001407,53.2158,121.5231,88.0973,272.018,0.00012083,1.636e-05,0.0,0 STARLINK-5447,1 54779U 22175X   23262.00696046  .00001636  00000-0  12083-3 0  9998,2 54779  53.2158 121.5231 0001407  88.0973 272.0180 15.08845985 41693,6917.862,95.437,540.7,538.754,0.0
54779.0,STARLINK-5447,PAYLOAD,2023-09-20 00:00:47,15.08857839,0.000143,53.2153,117.0623,81.3857,278.7297,0.00033141,4.993e-05,0.0,0 STARLINK-5447,1 54779U 22175X   23263.00055210  .00004993  00000-0  33141-3 0  9998,2 54779  53.2153 117.0623 0001430  81.3857 278.7297 15.08857839 41846,6917.826,95.436,540.68,538.702,0.0
54779.0,STARLINK-5447,PAYLOAD,2023-09-20 19:05:26,15.0882784,0.0001299,53.2151,113.4941,92.7477,267.3664,-0.00019574,-3.401e-05,0.0,0 STARLINK-5447,1 54779U 22175X   23263.79544645 -.00003401  00000-0 -19574-3 0  9998,2 54779  53.2151 113.4941 0001299  92.7477 267.3664 15.08827840 41968,6917.918,95.438,540.681,538.884,0.0
54779.0,STARLINK-5447,PAYLOAD,2023-09-20 20:40:49,15.08827301,0.0001334,53.2151,113.1968,95.8517,264.2627,-0.00019665,-3.415e-05,0.0,0 STARLINK-5447,1 54779U 22175X   23263.86168701 -.00003415  00000-0 -19665-3 0  9997,2 54779  53.2151 113.1968 0001334  95.8517 264.2627 15.08827301 44132,6917.919,95.438,540.707,538.861,0.0
54779.0,STARLINK-5447,PAYLOAD,2023-09-20 23:51:36,15.08825323,0.0001272,53.2152,112.6022,97.0385,263.0752,-0.00020415,-3.534e-05,0.0,0 STARLINK-5447,1 54779U 22175X   23263.99416875 -.00003534  00000-0 -20415-3 0  9996,2 54779  53.2152 112.6022 0001272  97.0385 263.0752 15.08825323 44156,6917.925,95.438,540.67,538.91,0.0
54779.0,STARLINK-5447,PAYLOAD,2023-09-21 18:56:13,15.08840624,0.0001229,53.2152,109.0358,99.5726,260.5404,3.9991e-05,3.49e-06,0.0,0 STARLINK-5447,1 54779U 22175X   23264.78904806  .00000349  00000-0  39991-4 0  9999,2 54779  53.2152 109.0358 0001229  99.5726 260.5404 15.08840624 42117,6917.878,95.438,540.594,538.893,0.0
54779.0,STARLINK-5447,PAYLOAD,2023-09-21 23:42:23,15.08840973,0.0001404,53.2154,108.1412,119.5133,240.6,0.0002497,3.688e-05,0.0,0 STARLINK-5447,1 54779U 22175X   23264.98776930  .00003688  00000-0  24970-3 0  9995,2 54779  53.2154 108.1412 0001404 119.5133 240.6000 15.08840973 44301,6917.877,95.437,540.714,538.771,0.0
54779.0,STARLINK-5447,PAYLOAD,2023-09-22 20:22:23,15.08851987,0.0001226,53.2155,104.2768,97.9377,262.1754,0.00050452,7.753e-05,0.0,0 STARLINK-5447,1 54779U 22175X   23265.84888882  .00007753  00000-0  50452-3 0  9992,2 54779  53.2155 104.2768 0001226  97.9377 262.1754 15.08851987 44430,6917.844,95.437,540.557,538.861,0.0
54779.0,STARLINK-5447,PAYLOAD,2023-09-23 05:54:42,15.08851779,0.0001238,53.2159,102.4926,93.2687,266.8447,0.00031036,4.657e-05,0.0,0 STARLINK-5447,1 54779U 22175X   23266.24632657  .00004657  00000-0  31036-3 0  9991,2 54779  53.2159 102.4926 0001238  93.2687 266.8447 15.08851779 44491,6917.844,95.437,540.566,538.853,0.0
54779.0,STARLINK-5447,PAYLOAD,2023-09-23 18:37:48,15.08838347,0.0001232,53.215,100.1161,97.8483,262.2649,-4.0736e-05,-9.36e-06,0.0,0 STARLINK-5447,1 54779U 22175X   23266.77625023 -.00000936  00000-0 -40736-4 0  9994,2 54779  53.2150 100.1161 0001232  97.8483 262.2649 15.08838347 42416,6917.885,95.438,540.603,538.898,0.0
54779.0,STARLINK-5447,PAYLOAD,2023-09-24 12:07:02,15.08841439,0.0001258,53.2158,96.8427,88.2206,271.8931,4.88e-05,4.89e-06,0.0,0 STARLINK-5447,1 54779U 22175X   23267.50488900  .00000489  00000-0  48800-4 0  9998,2 54779  53.2158  96.8427 0001258  88.2206 271.8931 15.08841439 44682,6917.876,95.437,540.611,538.871,0.0
54779.0,STARLINK-5447,PAYLOAD,2023-09-24 20:03:57,15.08846499,0.0001224,53.2157,95.3561,89.9438,270.1694,6.1814e-05,6.96e-06,0.0,0 STARLINK-5447,1 54779U 22175X   23267.83608618  .00000696  00000-0  61814-4 0  9994,2 54779  53.2157  95.3561 0001224  89.9438 270.1694 15.08846499 44737,6917.861,95.437,540.572,538.879,0.0
54779.0,STARLINK-5447,PAYLOAD,2023-09-25 11:57:49,15.08842269,0.0001228,53.2155,92.3826,89.2199,270.8934,0.00017955,2.571e-05,0.0,0 STARLINK-5447,1 54779U 22175X   23268.49848869  .00002571  00000-0  17955-3 0  9991,2 54779  53.2155  92.3826 0001228  89.2199 270.8934 15.08842269 44833,6917.873,95.437,540.588,538.889,0.0
54779.0,STARLINK-5447,PAYLOAD,2023-09-25 19:54:44,15.08851144,0.000132,53.2159,90.8951,85.8207,274.2936,0.0002268,3.325e-05,0.0,0 STARLINK-5447,1 54779U 22175X   23268.82968400  .00003325  00000-0  22680-3 0  9991,2 54779  53.2159  90.8951 0001320  85.8207 274.2936 15.08851144 44881,6917.846,95.437,540.624,538.798,0.0
54779.0,STARLINK-5447,PAYLOAD,2023-09-26 18:10:09,15.08837698,0.0001426,53.2157,86.7323,89.4117,270.7038,6.4708e-05,7.42e-06,0.0,0 STARLINK-5447,1 54779U 22175X   23269.75705415  .00000742  00000-0  64708-4 0  9997,2 54779  53.2157  86.7323 0001426  89.4117 270.7038 15.08837698 42861,6917.887,95.438,540.739,538.766,0.0
54779.0,STARLINK-5447,PAYLOAD,2023-09-26 21:20:55,15.08837929,0.0001557,53.2155,86.1377,79.0224,281.0943,0.00010634,1.405e-05,0.0,0 STARLINK-5447,1 54779U 22175X   23269.88953456  .00001405  00000-0  10634-3 0  9996,2 54779  53.2155  86.1377 0001557  79.0224 281.0943 15.08837929 45041,6917.887,95.438,540.829,538.675,0.0
54779.0,STARLINK-5447,PAYLOAD,2023-09-27 11:39:24,15.08839968,0.0001611,53.2161,83.4615,84.0257,276.0918,0.00016512,2.341e-05,0.0,0 STARLINK-5447,1 54779U 22175X   23270.48569600  .00002341  00000-0  16512-3 0  9999,2 54779  53.2161  83.4615 0001611  84.0257 276.0918 15.08839968 45137,6917.88,95.438,540.86,538.631,0.0
54779.0,STARLINK-5447,PAYLOAD,2023-09-27 18:00:56,15.08846265,0.0001577,53.2151,82.2722,81.2477,278.8693,0.00028666,4.278e-05,0.0,0 STARLINK-5447,1 54779U 22175X   23270.75065407  .00004278  00000-0  28666-3 0  9999,2 54779  53.2151  82.2722 0001577  81.2477 278.8693 15.08846265 43019,6917.861,95.437,540.817,538.635,0.0
54779.0,STARLINK-5447,PAYLOAD,2023-09-28 14:40:57,15.08845392,0.000166,53.2148,78.4066,78.5925,281.5253,0.00022467,3.29e-05,0.0,0 STARLINK-5447,1 54779U 22175X   23271.61177477  .00003290  00000-0  22467-3 0  9992,2 54779  53.2148  78.4066 0001660  78.5925 281.5253 15.08845392 45300,6917.864,95.437,540.877,538.581,0.0
54779.0,STARLINK-5447,PAYLOAD,2023-09-28 16:16:20,15.08845205,0.000163,53.2157,78.1089,81.447,278.6707,0.00021421,3.123e-05,0.0,0 STARLINK-5447,1 54779U 22175X   23271.67801453  .00003123  00000-0  21421-3 0  9990,2 54779  53.2157  78.1089 0001630  81.4470 278.6707 15.08845205 43152,6917.864,95.437,540.857,538.602,0.0
54779.0,STARLINK-5447,PAYLOAD,2023-09-28 21:02:29,15.08843603,0.0001673,53.2156,77.2159,86.0777,274.0406,0.00049252,7.56e-05,0.0,0 STARLINK-5447,1 54779U 22175X   23271.87673575  .00007560  00000-0  49252-3 0  9995,2 54779  53.2156  77.2159 0001673  86.0777 274.0406 15.08843603 45346,6917.869,95.437,540.892,538.577,0.0
54779.0,STARLINK-5447,PAYLOAD,2023-09-29 14:31:44,15.08844699,0.0001791,53.2157,73.9428,104.0556,256.0636,8.9696e-05,1.14e-05,0.0,0 STARLINK-5447,1 54779U 22175X   23272.60537161  .00001140  00000-0  89696-4 0  9992,2 54779  53.2157  73.9428 0001791 104.0556 256.0636 15.08844699 45459,6917.866,95.437,540.97,538.492,0.0
